[
    {
        "Altitude(m)": 607886.665512277,
        "Argument of Periapsis(deg)": 0.0,
        "Eccentricity": 0.0,
        "Inclination(deg)": 60.0,
        "Latitude(deg)": 40.99837340215772,
        "Longitude(deg)": -70.02707507707639,
        "Mean Anomaly(deg)": 49.09089999999999,
        "RAAN(deg)": 0.0,
        "Satellite Name": "Test1 3",
        "Satellite Number": 3,
        "Semi-Major Axis(m)": 6980739.136638005,
        "Time(s)": 0
    },
    {
        "Altitude(m)": 607987.579704598,
        "Argument of Periapsis(deg)": 0.00010418945913296404,
        "Eccentricity": 0.0,
        "Inclination(deg)": 60.0,
        "Latitude(deg)": 41.46346404482436,
        "Longitude(deg)": -69.52284864762734,
        "Mean Anomaly(deg)": 49.71100614546182,
        "RAAN(deg)": -0.0004200491397426661,
        "Satellite Name": "Test1 3",
        "Satellite Number": 3,
        "Semi-Major Axis(m)": 6980739.136638005,
        "Time(s)": 10
    },
    {
        "Altitude(m)": 608088.5435287679,
        "Argument of Periapsis(deg)": 0.0002083789182659281,
        "Eccentricity": 0.0,
        "Inclination(deg)": 60.0,
        "Latitude(deg)": 41.92589052794887,
        "Longitude(deg)": -69.01079923882973,
        "Mean Anomaly(deg)": 50.33111229092366,
        "RAAN(deg)": -0.0008400982794853322,
        "Satellite Name": "Test1 3",
        "Satellite Number": 3,
        "Semi-Major Axis(m)": 6980739.136638005,
        "Time(s)": 20
    },
    {
        "Altitude(m)": 608189.4937634205,
        "Argument of Periapsis(deg)": 0.00031256837739889213,
        "Eccentricity": 0.0,
        "Inclination(deg)": 60.0,
        "Latitude(deg)": 42.38557210237877,
        "Longitude(deg)": -68.49073081010779,
        "Mean Anomaly(deg)": 50.95121843638549,
        "RAAN(deg)": -0.0012601474192279983,
        "Satellite Name": "Test1 3",
        "Satellite Number": 3,
        "Semi-Major Axis(m)": 6980739.136638005,
        "Time(s)": 30
    },
    {
        "Altitude(m)": 608290.3674139233,
        "Argument of Periapsis(deg)": 0.0004167578365318562,
        "Eccentricity": 0.0,
        "Inclination(deg)": 60.0,
        "Latitude(deg)": 42.84242547193368,
        "Longitude(deg)": -67.96244345414338,
        "Mean Anomaly(deg)": 51.57132458184732,
        "RAAN(deg)": -0.0016801965589706644,
        "Satellite Name": "Test1 3",
        "Satellite Number": 3,
        "Semi-Major Axis(m)": 6980739.136638005,
        "Time(s)": 40
    },
    {
        "Altitude(m)": 608391.1017436069,
        "Argument of Periapsis(deg)": 0.0005209472956648203,
        "Eccentricity": 0.0,
        "Inclination(deg)": 60.0,
        "Latitude(deg)": 43.296364714018274,
        "Longitude(deg)": -67.42573449189028,
        "Mean Anomaly(deg)": 52.19143072730915,
        "RAAN(deg)": -0.0021002456987133304,
        "Satellite Name": "Test1 3",
        "Satellite Number": 3,
        "Semi-Major Axis(m)": 6980739.136638005,
        "Time(s)": 50
    },
    {
        "Altitude(m)": 608491.6343048587,
        "Argument of Periapsis(deg)": 0.0006251367547977843,
        "Eccentricity": 0.0,
        "Inclination(deg)": 60.0,
        "Latitude(deg)": 43.74730119952669,
        "Longitude(deg)": -66.8803980744835,
        "Mean Anomaly(deg)": 52.81153687277097,
        "RAAN(deg)": -0.0025202948384559967,
        "Satellite Name": "Test1 3",
        "Satellite Number": 3,
        "Semi-Major Axis(m)": 6980739.136638005,
        "Time(s)": 60
    },
    {
        "Altitude(m)": 608591.9029699975,
        "Argument of Periapsis(deg)": 0.0007293262139307483,
        "Eccentricity": 0.0,
        "Inclination(deg)": 60.0,
        "Latitude(deg)": 44.19514351226995,
        "Longitude(deg)": -66.3262248068043,
        "Mean Anomaly(deg)": 53.431643018232805,
        "RAAN(deg)": -0.0029403439781986625,
        "Satellite Name": "Test1 3",
        "Satellite Number": 3,
        "Semi-Major Axis(m)": 6980739.136638005,
        "Time(s)": 70
    },
    {
        "Altitude(m)": 608691.8459619709,
        "Argument of Periapsis(deg)": 0.0008335156730637124,
        "Eccentricity": 0.0,
        "Inclination(deg)": 60.0,
        "Latitude(deg)": 44.639797368189605,
        "Longitude(deg)": -65.76300290758198,
        "Mean Anomaly(deg)": 54.05174916369463,
        "RAAN(deg)": -0.0033603931179413287,
        "Satellite Name": "Test1 3",
        "Satellite Number": 3,
        "Semi-Major Axis(m)": 6980739.136638005,
        "Time(s)": 80
    },
    {
        "Altitude(m)": 608791.4018848168,
        "Argument of Periapsis(deg)": 0.0009377051321966765,
        "Eccentricity": 0.0,
        "Inclination(deg)": 60.0,
        "Latitude(deg)": 45.081165534661864,
        "Longitude(deg)": -65.19051788242705,
        "Mean Anomaly(deg)": 54.67185530915647,
        "RAAN(deg)": -0.003780442257683994,
        "Satellite Name": "Test1 3",
        "Satellite Number": 3,
        "Semi-Major Axis(m)": 6980739.136638005,
        "Time(s)": 90
    },
    {
        "Altitude(m)": 608890.5097539121,
        "Argument of Periapsis(deg)": 0.0010418945913296407,
        "Eccentricity": 0.0,
        "Inclination(deg)": 60.0,
        "Latitude(deg)": 45.51914775023254,
        "Longitude(deg)": -64.60855222492393,
        "Mean Anomaly(deg)": 55.2919614546183,
        "RAAN(deg)": -0.004200491397426661,
        "Satellite Name": "Test1 3",
        "Satellite Number": 3,
        "Semi-Major Axis(m)": 6980739.136638005,
        "Time(s)": 100
    },
    {
        "Altitude(m)": 608989.109025947,
        "Argument of Periapsis(deg)": 0.0011460840504626045,
        "Eccentricity": 0.0,
        "Inclination(deg)": 60.0,
        "Latitude(deg)": 45.9536406451684,
        "Longitude(deg)": -64.01688666103514,
        "Mean Anomaly(deg)": 55.91206760008013,
        "RAAN(deg)": -0.004620540537169327,
        "Satellite Name": "Test1 3",
        "Satellite Number": 3,
        "Semi-Major Axis(m)": 6980739.136638005,
        "Time(s)": 110
    },
    {
        "Altitude(m)": 609087.1396286765,
        "Argument of Periapsis(deg)": 0.0012502735095955685,
        "Eccentricity": 0.0,
        "Inclination(deg)": 60.0,
        "Latitude(deg)": 46.38453766325849,
        "Longitude(deg)": -63.41529991357371,
        "Mean Anomaly(deg)": 56.53217374554196,
        "RAAN(deg)": -0.005040589676911993,
        "Satellite Name": "Test1 3",
        "Satellite Number": 3,
        "Semi-Major Axis(m)": 6980739.136638005,
        "Time(s)": 120
    },
    {
        "Altitude(m)": 609184.5419903717,
        "Argument of Periapsis(deg)": 0.0013544629687285324,
        "Eccentricity": 0.0,
        "Inclination(deg)": 60.0,
        "Latitude(deg)": 46.81172898534861,
        "Longitude(deg)": -62.803568502226085,
        "Mean Anomaly(deg)": 57.152279891003786,
        "RAAN(deg)": -0.005460638816654658,
        "Satellite Name": "Test1 3",
        "Satellite Number": 3,
        "Semi-Major Axis(m)": 6980739.136638005,
        "Time(s)": 130
    },
    {
        "Altitude(m)": 609281.2570689964,
        "Argument of Periapsis(deg)": 0.0014586524278614966,
        "Eccentricity": 0.0,
        "Inclination(deg)": 60.0,
        "Latitude(deg)": 47.23510145514544,
        "Longitude(deg)": -62.18146809471144,
        "Mean Anomaly(deg)": 57.772386036465626,
        "RAAN(deg)": -0.005880687956397325,
        "Satellite Name": "Test1 3",
        "Satellite Number": 3,
        "Semi-Major Axis(m)": 6980739.136638005,
        "Time(s)": 140
    },
    {
        "Altitude(m)": 609377.2263810877,
        "Argument of Periapsis(deg)": 0.0015628418869944607,
        "Eccentricity": 0.0,
        "Inclination(deg)": 60.0,
        "Latitude(deg)": 47.65453850788817,
        "Longitude(deg)": -61.54877338614511,
        "Mean Anomaly(deg)": 58.392492181927445,
        "RAAN(deg)": -0.006300737096139991,
        "Satellite Name": "Test1 3",
        "Satellite Number": 3,
        "Semi-Major Axis(m)": 6980739.136638005,
        "Time(s)": 150
    },
    {
        "Altitude(m)": 609472.3920303291,
        "Argument of Periapsis(deg)": 0.0016670313461274247,
        "Eccentricity": 0.0,
        "Inclination(deg)": 60.0,
        "Latitude(deg)": 48.069920102544664,
        "Longitude(deg)": -60.90525802236246,
        "Mean Anomaly(deg)": 59.01259832738927,
        "RAAN(deg)": -0.0067207862358826575,
        "Satellite Name": "Test1 3",
        "Satellite Number": 3,
        "Semi-Major Axis(m)": 6980739.136638005,
        "Time(s)": 160
    },
    {
        "Altitude(m)": 609566.6967357859,
        "Argument of Periapsis(deg)": 0.0017712208052603888,
        "Eccentricity": 0.0,
        "Inclination(deg)": 60.0,
        "Latitude(deg)": 48.48112265825411,
        "Longitude(deg)": -60.250696083019065,
        "Mean Anomaly(deg)": 59.63270447285112,
        "RAAN(deg)": -0.007140835375625323,
        "Satellite Name": "Test1 3",
        "Satellite Number": 3,
        "Semi-Major Axis(m)": 6980739.136638005,
        "Time(s)": 170
    },
    {
        "Altitude(m)": 609660.0838598195,
        "Argument of Periapsis(deg)": 0.001875410264393353,
        "Eccentricity": 0.0,
        "Inclination(deg)": 60.0,
        "Latitude(deg)": 48.888018995809766,
        "Longitude(deg)": -59.58486210170688,
        "Mean Anomaly(deg)": 60.25281061831294,
        "RAAN(deg)": -0.007560884515367988,
        "Satellite Name": "Test1 3",
        "Satellite Number": 3,
        "Semi-Major Axis(m)": 6980739.136638005,
        "Time(s)": 180
    },
    {
        "Altitude(m)": 609752.4974356467,
        "Argument of Periapsis(deg)": 0.0019795997235263173,
        "Eccentricity": 0.0,
        "Inclination(deg)": 60.0,
        "Latitude(deg)": 49.29047828504527,
        "Longitude(deg)": -58.90753113894368,
        "Mean Anomaly(deg)": 60.87291676377477,
        "RAAN(deg)": -0.007980933655110656,
        "Satellite Name": "Test1 3",
        "Satellite Number": 3,
        "Semi-Major Axis(m)": 6980739.136638005,
        "Time(s)": 190
    }
]